NORAD_CAT_ID,OBJECT_NAME,OBJECT_TYPE,EPOCH,MEAN_MOTION,ECCENTRICITY,INCLINATION,RA_OF_ASC_NODE,ARG_OF_PERICENTER,MEAN_ANOMALY,BSTAR,MEAN_MOTION_DOT,MEAN_MOTION_DDOT,TLE_LINE0,TLE_LINE1,TLE_LINE2,SEMIMAJOR_AXIS,PERIOD,APOGEE,PERIGEE,DECAYED
53799.0,STARLINK-4710,PAYLOAD,2024-03-04 21:03:17,15.08814142,0.0001331,53.2171,322.8871,77.1141,283.0,-0.00032949,-5.524e-05,0.0,0 STARLINK-4710,1 53799U 22111AC  24064.87728791 -.00005524  00000-0 -32949-3 0  9993,2 53799  53.2171 322.8871 0001331  77.1141 283.0000 15.08814142 82078,6917.959,95.439,540.745,538.904,0.0
53799.0,STARLINK-4710,PAYLOAD,2024-03-04 22:38:40,15.08816322,0.0001424,53.217,322.5902,82.4336,277.6818,-0.00029836,-5.03e-05,0.0,0 STARLINK-4710,1 53799U 22111AC  24064.94352741 -.00005030  00000-0 -29836-3 0  9992,2 53799  53.2170 322.5902 0001424  82.4336 277.6818 15.08816322 82895,6917.953,95.439,540.803,538.833,0.0
53799.0,STARLINK-4710,PAYLOAD,2024-03-05 20:54:04,15.08838023,0.0001631,53.2187,318.4354,110.902,249.2147,0.00011711,1.576e-05,0.0,0 STARLINK-4710,1 53799U 22111AC  24065.87088208  .00001576  00000-0  11711-3 0  9991,2 53799  53.2187 318.4354 0001631 110.9020 249.2147 15.08838023 82224,6917.886,95.438,540.88,538.623,0.0
53799.0,STARLINK-4710,PAYLOAD,2024-03-06 03:15:36,15.08843743,0.0001474,53.2182,317.2411,100.7195,259.3963,0.00027891,4.154e-05,0.0,0 STARLINK-4710,1 53799U 22111AC  24066.13584203  .00004154  00000-0  27891-3 0  9998,2 53799  53.2182 317.2411 0001474 100.7195 259.3963 15.08843743 83072,6917.869,95.437,540.754,538.714,0.0
53799.0,STARLINK-4710,PAYLOAD,2024-03-06 23:55:37,15.0884197,0.0001327,53.2174,313.3744,90.3296,269.7848,0.00017382,2.48e-05,0.0,0 STARLINK-4710,1 53799U 22111AC  24066.99696332  .00002480  00000-0  17382-3 0  9993,2 53799  53.2174 313.3744 0001327  90.3296 269.7848 15.08841970 82393,6917.874,95.437,540.657,538.821,0.0
53799.0,STARLINK-4710,PAYLOAD,2024-03-07 09:27:56,15.08849842,0.0001396,53.2177,311.5896,86.7316,273.3836,0.00024925,3.682e-05,0.0,0 STARLINK-4710,1 53799U 22111AC  24067.39439948  .00003682  00000-0  24925-3 0  9992,2 53799  53.2177 311.5896 0001396  86.7316 273.3836 15.08849842 83263,6917.85,95.437,540.681,538.75,0.0
53799.0,STARLINK-4710,PAYLOAD,2024-03-07 23:46:24,15.08841206,0.000149,53.2178,308.9142,89.7459,270.3703,2.8973e-05,1.73e-06,0.0,0 STARLINK-4710,1 53799U 22111AC  24067.99056440  .00000173  00000-0  28973-4 0  9990,2 53799  53.2178 308.9142 0001490  89.7459 270.3703 15.08841206 82540,6917.877,95.437,540.772,538.711,0.0
53799.0,STARLINK-4710,PAYLOAD,2024-03-08 09:18:43,15.08850918,0.0001416,53.2179,307.1334,94.2684,265.847,0.00014217,1.976e-05,0.0,0 STARLINK-4710,1 53799U 22111AC  24068.38799849  .00001976  00000-0  14217-3 0  9998,2 53799  53.2179 307.1334 0001416  94.2684 265.8470 15.08850918 82601,6917.847,95.437,540.692,538.732,0.0
53799.0,STARLINK-4710,PAYLOAD,2024-03-08 15:40:16,15.08830131,0.0001132,53.2175,305.9416,103.5565,256.5553,-0.00014477,-2.59e-05,0.0,0 STARLINK-4710,1 53799U 22111AC  24068.65296585 -.00002590  00000-0 -14477-3 0  9990,2 53799  53.2175 305.9416 0001132 103.5565 256.5553 15.08830131 82649,6917.911,95.438,540.559,538.992,0.0
53799.0,STARLINK-4710,PAYLOAD,2024-03-09 01:12:34,15.0884209,0.0001838,53.2171,304.1578,93.849,266.2712,0.00012673,1.729e-05,0.0,0 STARLINK-4710,1 53799U 22111AC  24069.05040420  .00001729  00000-0  12673-3 0  9997,2 53799  53.2171 304.1578 0001838  93.8490 266.2712 15.08842090 82705,6917.874,95.437,541.011,538.467,0.0
53799.0,STARLINK-4710,PAYLOAD,2024-03-09 09:09:30,15.08845568,0.0001875,53.2171,302.6711,94.5134,265.6073,0.00019997,2.896e-05,0.0,0 STARLINK-4710,1 53799U 22111AC  24069.38160348  .00002896  00000-0  19997-3 0  9997,2 53799  53.2171 302.6711 0001875  94.5134 265.6073 15.08845568 83562,6917.863,95.437,541.025,538.431,0.0
53799.0,STARLINK-4710,PAYLOAD,2024-03-09 21:52:35,15.08846467,0.000205,53.2173,300.2923,93.1572,266.9655,0.00024832,3.667e-05,0.0,0 STARLINK-4710,1 53799U 22111AC  24069.91152388  .00003667  00000-0  24832-3 0  9992,2 53799  53.2173 300.2923 0002050  93.1572 266.9655 15.08846467 83648,6917.861,95.437,541.144,538.307,0.0
53799.0,STARLINK-4710,PAYLOAD,2024-03-10 01:03:21,15.08843081,0.0001698,53.2168,299.6993,87.6951,272.4235,0.00012983,1.779e-05,0.0,0 STARLINK-4710,1 53799U 22111AC  24070.04400452  .00001779  00000-0  12983-3 0  9992,2 53799  53.2168 299.6993 0001698  87.6951 272.4235 15.08843081 83663,6917.871,95.437,540.911,538.561,0.0
53799.0,STARLINK-4710,PAYLOAD,2024-03-10 21:43:22,15.08841792,0.0001565,53.2144,295.8314,93.9237,266.1934,0.00012048,1.63e-05,0.0,0 STARLINK-4710,1 53799U 22111AC  24070.90512412  .00001630  00000-0  12048-3 0  9995,2 53799  53.2144 295.8314 0001565  93.9237 266.1934 15.08841792 82989,6917.875,95.437,540.823,538.657,0.0
53799.0,STARLINK-4710,PAYLOAD,2024-03-11 15:12:37,15.0883542,0.0001424,53.2146,292.5602,93.0799,267.0356,0.0002213,3.235e-05,0.0,0 STARLINK-4710,1 53799U 22111AC  24071.63376739  .00003235  00000-0  22130-3 0  9992,2 53799  53.2146 292.5602 0001424  93.0799 267.0356 15.08835420 83905,6917.894,95.438,540.744,538.774,0.0
53799.0,STARLINK-4710,PAYLOAD,2024-03-11 21:34:09,15.08836605,0.0001136,53.2158,291.3738,87.7231,272.3891,7.9628e-05,9.8e-06,0.0,0 STARLINK-4710,1 53799U 22111AC  24071.89872642  .00000980  00000-0  79628-4 0  9993,2 53799  53.2158 291.3738 0001136  87.7231 272.3891 15.08836605 83130,6917.891,95.438,540.542,538.97,0.0
53799.0,STARLINK-4710,PAYLOAD,2024-03-12 21:24:57,15.08832091,0.0001236,53.2154,286.9127,90.1914,269.922,-1.4379e-05,-5.17e-06,0.0,0 STARLINK-4710,1 53799U 22111AC  24072.89233081 -.00000517  00000-0 -14379-4 0  9992,2 53799  53.2154 286.9127 0001236  90.1914 269.9220 15.08832091 84094,6917.905,95.438,540.625,538.915,0.0
53799.0,STARLINK-4710,PAYLOAD,2024-03-13 06:57:16,15.08834093,0.0001423,53.2151,285.1258,84.8028,275.3127,8.3037e-05,1.034e-05,0.0,0 STARLINK-4710,1 53799U 22111AC  24073.28977336  .00001034  00000-0  83037-4 0  9994,2 53799  53.2151 285.1258 0001423  84.8028 275.3127 15.08834093 83349,6917.898,95.438,540.748,538.779,0.0
53799.0,STARLINK-4710,PAYLOAD,2024-03-14 06:48:02,15.08851098,0.0001425,53.216,280.664,72.8075,287.3073,0.00017285,2.465e-05,0.0,0 STARLINK-4710,1 53799U 22111AC  24074.28336174  .00002465  00000-0  17285-3 0  9994,2 53799  53.2160 280.6640 0001425  72.8075 287.3073 15.08851098 84309,6917.846,95.437,540.697,538.726,0.0
53799.0,STARLINK-4710,PAYLOAD,2024-03-14 13:09:35,15.08847483,0.0002543,53.2099,279.4749,77.8147,282.313,0.00026811,3.982e-05,0.0,0 STARLINK-4710,1 53799U 22111AC  24074.54832880  .00003982  00000-0  26811-3 0  9998,2 53799  53.2099 279.4749 0002543  77.8147 282.3130 15.08847483 83539,6917.858,95.437,541.482,537.963,0.0
53799.0,STARLINK-4710,PAYLOAD,2024-03-14 21:06:31,15.08836927,0.0001364,53.2156,277.9902,82.2482,277.8665,8.5155e-05,1.067e-05,0.0,0 STARLINK-4710,1 53799U 22111AC  24074.87953170  .00001067  00000-0  85155-4 0  9999,2 53799  53.2156 277.9902 0001364  82.2482 277.8665 15.08836927 83587,6917.89,95.438,540.698,538.811,0.0
53799.0,STARLINK-4710,PAYLOAD,2024-03-15 13:00:22,15.08839438,0.0001172,53.2153,275.0171,81.1882,278.9243,6.6345e-05,7.68e-06,0.0,0 STARLINK-4710,1 53799U 22111AC  24075.54193156  .00000768  00000-0  66345-4 0  9991,2 53799  53.2153 275.0171 0001172  81.1882 278.9243 15.08839438 84495,6917.882,95.438,540.558,538.936,0.0
53799.0,STARLINK-4710,PAYLOAD,2024-03-16 19:12:42,15.08840501,0.0001339,53.2155,269.367,71.5181,288.5957,0.00017779,2.543e-05,0.0,0 STARLINK-4710,1 53799U 22111AC  24076.80049572  .00002543  00000-0  17779-3 0  9992,2 53799  53.2155 269.3670 0001339  71.5181 288.5957 15.08840501 83870,6917.879,95.438,540.67,538.818,0.0
53799.0,STARLINK-4710,PAYLOAD,2024-03-17 22:14:15,15.08845344,0.0001191,53.2154,264.3092,96.4691,263.6437,0.00017715,2.533e-05,0.0,0 STARLINK-4710,1 53799U 22111AC  24077.92657187  .00002533  00000-0  17715-3 0  9992,2 53799  53.2154 264.3092 0001191  96.4691 263.6437 15.08845344 84856,6917.864,95.437,540.553,538.905,0.0
53799.0,STARLINK-4710,PAYLOAD,2024-03-18 12:32:44,15.08843304,0.0001248,53.2157,261.6312,95.6444,264.4691,0.00010891,1.446e-05,0.0,0 STARLINK-4710,1 53799U 22111AC  24078.52273227  .00001446  00000-0  10891-3 0  9998,2 53799  53.2157 261.6312 0001248  95.6444 264.4691 15.08843304 84949,6917.87,95.437,540.599,538.872,0.0
53799.0,STARLINK-4710,PAYLOAD,2024-03-19 10:48:07,15.08843444,0.0001249,53.2156,257.4683,96.9779,263.1355,9.7231e-05,1.26e-05,0.0,0 STARLINK-4710,1 53799U 22111AC  24079.45009112  .00001260  00000-0  97231-4 0  9999,2 53799  53.2156 257.4683 0001249  96.9779 263.1355 15.08843444 85082,6917.87,95.437,540.599,538.871,0.0
53799.0,STARLINK-4710,PAYLOAD,2024-03-20 10:38:54,15.08843538,0.0001284,53.2154,253.0118,87.1707,272.9432,8.8552e-05,1.122e-05,0.0,0 STARLINK-4710,1 53799U 22111AC  24080.44368890  .00001122  00000-0  88552-4 0  9994,2 53799  53.2154 253.0118 0001284  87.1707 272.9432 15.08843538 84422,6917.87,95.437,540.623,538.846,0.0
53799.0,STARLINK-4710,PAYLOAD,2024-03-20 17:00:27,15.08836192,0.0001274,53.2152,251.8151,92.8412,267.2726,1.7222e-06,-2.6e-06,0.0,0 STARLINK-4710,1 53799U 22111AC  24080.70865363 -.00000260  00000-0  17222-5 0  9990,2 53799  53.2152 251.8151 0001274  92.8412 267.2726 15.08836192 84463,6917.892,95.438,540.638,538.876,0.0
53799.0,STARLINK-4710,PAYLOAD,2024-03-21 10:29:42,15.08831414,0.0001374,53.2166,248.5496,98.005,262.1098,-6.8215e-05,-1.373e-05,0.0,0 STARLINK-4710,1 53799U 22111AC  24081.43729888 -.00001373  00000-0 -68215-4 0  9996,2 53799  53.2166 248.5496 0001374  98.0050 262.1098 15.08831414 85380,6917.907,95.438,540.722,538.821,0.0
53799.0,STARLINK-4710,PAYLOAD,2024-03-21 18:26:38,15.08842472,0.0001284,53.2157,247.065,97.3988,262.715,0.00015758,2.221e-05,0.0,0 STARLINK-4710,1 53799U 22111AC  24081.76849563  .00002221  00000-0  15758-3 0  9999,2 53799  53.2157 247.0650 0001284  97.3988 262.7150 15.08842472 84625,6917.873,95.437,540.626,538.85,0.0
